<?xml version="1.0" encoding="UTF-8" standalone="yes"?>
<ndm>
    <oem id="CCSDS_OEM_VERS" version="2.0">
        <header>
            <CREATION_DATE>2021-351T18:28:50.585Z</CREATION_DATE>
            <ORIGINATOR>JSC</ORIGINATOR>
        </header>
        <body>
            <segment>
                <metadata>
                    <OBJECT_NAME>ISS</OBJECT_NAME>
                    <OBJECT_ID>1998-067-A</OBJECT_ID>
                    <CENTER_NAME>EARTH</CENTER_NAME>
                    <REF_FRAME>EME2000</REF_FRAME>
                    <TIME_SYSTEM>UTC</TIME_SYSTEM>
                    <START_TIME>2021-351T12:00:00.000Z</START_TIME>
                    <STOP_TIME>2022-001T12:00:00.000Z</STOP_TIME>
                </metadata>
                <data>
                    <COMMENT>Units are in kg and m^2</COMMENT>
                    <COMMENT>MASS=454862.00</COMMENT>
                    <COMMENT>DRAG_AREA=1439.70</COMMENT>
                    <COMMENT>DRAG_COEFF=1.30</COMMENT>
                    <COMMENT>SOLAR_RAD_AREA=0.00</COMMENT>
                    <COMMENT>SOLAR_RAD_COEFF=0.00</COMMENT>
                    <COMMENT>Orbits start at the ascending node epoch </COMMENT>
                    <COMMENT>ISS first asc. node: EPOCH = 2021-12-17T12:43:00.355 $ ORBIT = 3700 $ LAN(DEG) = -120.97174</COMMENT>
                    <COMMENT>ISS last asc. node : EPOCH = 2022-01-01T11:50:49.123 $ ORBIT = 3932 $ LAN(DEG) = 163.26728</COMMENT>
                    <COMMENT>Begin sequence of events</COMMENT>
                    <COMMENT>TRAJECTORY EVENT SUMMARY:</COMMENT>
                    <COMMENT></COMMENT>
                    <COMMENT>|       EVENT        |       TIG        | ORB |   DV    |   HA    |   HP    |</COMMENT>
                    <COMMENT>|                    |       GMT        |     |   M/S   |   KM    |   KM    |</COMMENT>
                    <COMMENT>|                    |                  |     |  (F/S)  |  (NM)   |  (NM)   |</COMMENT>
                    <COMMENT>=============================================================================</COMMENT>
                    <COMMENT> 66S Undock            353:23:50:30.000             0.0     424.7     414.1</COMMENT>
                    <COMMENT>                                                   (0.0)   (229.3)   (223.6)</COMMENT>
                    <COMMENT></COMMENT>
                    <COMMENT> SpX-24 launch         355:10:06:28.000             0.0     424.9     414.0</COMMENT>
                    <COMMENT>                                                   (0.0)   (229.4)   (223.6)</COMMENT>
                    <COMMENT></COMMENT>
                    <COMMENT> SpX-24 Docking        356:09:25:08.000             0.0     425.0     413.7</COMMENT>
                    <COMMENT>                                                   (0.0)   (229.5)   (223.4)</COMMENT>
                    <COMMENT></COMMENT>
                    <COMMENT> 6R-PAO Undock         356:23:03:00.000             0.0     425.2     413.4</COMMENT>
                    <COMMENT>                                                   (0.0)   (229.6)   (223.2)</COMMENT>
                    <COMMENT></COMMENT>
                    <COMMENT> GMT 358 Deboost       358:01:18:00.000             1.1     425.5     413.2</COMMENT>
                    <COMMENT>                                                   (3.6)   (229.8)   (223.1)</COMMENT>
                    <COMMENT></COMMENT>
                    <COMMENT>=============================================================================</COMMENT>
                    <COMMENT>End sequence of events</COMMENT>
                    <stateVector>
                        <EPOCH>2021-361T20:40:00.000Z</EPOCH>
                        <X units="km">-4370.4054734001902</X>
                        <Y units="km">2508.92749175682</Y>
                        <Z units="km">4550.6399915254997</Z>
                        <X_DOT units="km/s">-0.72555852772778995</X_DOT>
                        <Y_DOT units="km/s">-6.9554240793257298</Y_DOT>
                        <Z_DOT units="km/s">3.13540429129697</Z_DOT>
                    </stateVector>
                    <stateVector>
                        <EPOCH>2021-361T20:44:00.000Z</EPOCH>
                        <X units="km">-4383.4632323103697</X>
                        <Y units="km">768.64970760402105</Y>
                        <Z units="km">5127.97588280127</Z>
                        <X_DOT units="km/s">0.61723450143761005</X_DOT>
                        <Y_DOT units="km/s">-7.4582778643244803</Y_DOT>
                        <Z_DOT units="km/s">1.6464576596151901</Z_DOT>
                    </stateVector>
                    <stateVector>
                        <EPOCH>2021-361T20:48:00.000Z</EPOCH>
                        <X units="km">-4077.8013882253199</X>
                        <Y units="km">-1027.5408114361401</Y>
                        <Z units="km">5331.3928508837398</Z>
                        <X_DOT units="km/s">1.9142918560875499</X_DOT>
                        <Y_DOT units="km/s">-7.4186369763414897</Y_DOT>
                        <Z_DOT units="km/s">0.038452845255710001</Z_DOT>
                    </stateVector>
                    <stateVector>
                        <EPOCH>2021-361T20:52:00.000Z</EPOCH>
                        <X units="km">-3475.7942635422401</X>
                        <Y units="km">-2749.0645450197999</Y>
                        <Z units="km">5146.2557032183804</Z>
                        <X_DOT units="km/s">3.07179803952963</X_DOT>
                        <Y_DOT units="km/s">-6.8399010927933501</Y_DOT>
                        <Z_DOT units="km/s">-1.5717717135656999</Z_DOT>
                    </stateVector>
                    <stateVector>
                        <EPOCH>2021-361T20:56:00.000Z</EPOCH>
                        <X units="km">-2621.2376408043501</X>
                        <Y units="km">-4270.837544899</Y>
                        <Z units="km">4586.1286577421797</Z>
                        <X_DOT units="km/s">4.0060955920933896</X_DOT>
                        <Y_DOT units="km/s">-5.7641605757259002</Y_DOT>
                        <Z_DOT units="km/s">-3.0674399241832</Z_DOT>
                    </stateVector>
                    <stateVector>
                        <EPOCH>2021-361T21:00:00.000Z</EPOCH>
                        <X units="km">-1576.19971115711</X>
                        <Y units="km">-5482.2420360316</Y>
                        <Z units="km">3691.7825181948001</Z>
                        <X_DOT units="km/s">4.6494528620200697</X_DOT>
                        <Y_DOT units="km/s">-4.26920469898488</Y_DOT>
                        <Z_DOT units="km/s">-4.3399167126111902</Z_DOT>
                    </stateVector>
                    <stateVector>
                        <EPOCH>2021-361T21:04:00.000Z</EPOCH>
                        <X units="km">-416.59311179047802</X>
                        <Y units="km">-6295.1243372673798</Y>
                        <Z units="km">2528.3094435346002</Z>
                        <X_DOT units="km/s">4.9549715265198504</X_DOT>
                        <Y_DOT units="km/s">-2.46338455670038</Y_DOT>
                        <Z_DOT units="km/s">-5.2963945328966702</Z_DOT>
                    </stateVector>
                    <stateVector>
                        <EPOCH>2021-361T21:08:00.000Z</EPOCH>
                        <X units="km">773.29546993777501</X>
                        <Y units="km">-6650.2767042697096</Y>
                        <Z units="km">1180.4742271330399</Z>
                        <X_DOT units="km/s">4.9002396125069101</X_DOT>
                        <Y_DOT units="km/s">-0.47814544424986</Y_DOT>
                        <Z_DOT units="km/s">-5.8668112946273503</Z_DOT>
                    </stateVector>
                    <stateVector>
                        <EPOCH>2021-361T21:12:00.000Z</EPOCH>
                        <X units="km">1906.95197939676</X>
                        <Y units="km">-6521.8724081826304</Y>
                        <Z units="km">-253.44825206246901</Z>
                        <X_DOT units="km/s">4.4892686877154597</X_DOT>
                        <Y_DOT units="km/s">1.54152775676317</Y_DOT>
                        <Z_DOT units="km/s">-6.0093958293777598</Z_DOT>
                    </stateVector>
                    <stateVector>
                        <EPOCH>2021-361T21:16:00.000Z</EPOCH>
                        <X units="km">2902.00481958101</X>
                        <Y units="km">-5919.4190206726298</Y>
                        <Z units="km">-1668.9104985063</Z>
                        <X_DOT units="km/s">3.75235749494</X_DOT>
                        <Y_DOT units="km/s">3.4480511008233101</Y_DOT>
                        <Z_DOT units="km/s">-5.7140062419775299</Z_DOT>
                    </stateVector>
                    <stateVector>
                        <EPOCH>2021-361T21:20:00.000Z</EPOCH>
                        <X units="km">3686.2930524696098</X>
                        <Y units="km">-4887.0225200274699</Y>
                        <Z units="km">-2962.83106036448</Z>
                        <X_DOT units="km/s">2.7437257234755998</X_DOT>
                        <Y_DOT units="km/s">5.1025344794213101</Y_DOT>
                        <Z_DOT units="km/s">-5.00288923321353</Z_DOT>
                    </stateVector>
                    
                </data>
            </segment>
        </body>
    </oem>
</ndm>
